[{"OBJECT_NAME":"SAUDISAT 5B","OBJECT_ID":"2018-102C","EPOCH":"2026-03-09T22:59:17.457216","MEAN_MOTION":15.27248504,"ECCENTRICITY":0.00120577,"INCLINATION":97.3281,"RA_OF_ASC_NODE":135.3629,"ARG_OF_PERICENTER":124.0958,"MEAN_ANOMALY":236.1427,"EPHEMERIS_TYPE":0,"CLASSIFICATION_TYPE":"U","NORAD_CAT_ID":43833,"ELEMENT_SET_NO":999,"REV_AT_EPOCH":40064,"BSTAR":0.00024926623,"MEAN_MOTION_DOT":6.596e-5,"MEAN_MOTION_DDOT":0},{"OBJECT_NAME":"STARLINK-30213","OBJECT_ID":"2023-113K","EPOCH":"2026-03-09T22:00:01.999584","MEAN_MOTION":15.26744484,"ECCENTRICITY":0.00015615,"INCLINATION":43.0003,"RA_OF_ASC_NODE":14.81,"ARG_OF_PERICENTER":268.161,"MEAN_ANOMALY":300.99,"EPHEMERIS_TYPE":0,"CLASSIFICATION_TYPE":"U","NORAD_CAT_ID":57504,"ELEMENT_SET_NO":999,"REV_AT_EPOCH":578,"BSTAR":0.00027727019,"MEAN_MOTION_DOT":7.186e-5,"MEAN_MOTION_DDOT":0}]
